#dP2022  7  6  0  0  0.00000000      97 __u+U IGS14 FIT  IAC
## 2217 259200.00000000   900.00000000 59766 0.0000000000000
+  116   C06C07C08C09C10C11C12C13C14C16C19C20C21C22C23C24C25
+        C26C27C28C29C30C32C33C34C35C36C37C38C39C40C41C42C43
+        C44C45C46E01E02E03E04E05E07E08E09E10E11E12E13E14E15
+        E18E19E21E24E25E26E27E30E31E33E34E36G01G02G03G04G05
+        G06G07G08G09G10G11G12G13G14G15G16G17G18G19G20G21G22
+        G23G24G25G26G27G28G29G30G31G32J02J03R01R02R03R04R05
+        R07R08R09R11R12R13R14R15R17R18R19R20R21R24  0  0  0
++         7  7  7  7  7  6  6  7  6  0  5  6  5  5  5  5  6
++         6  6  5  6  6  6  6  5  6  6  6  6  6  6  6  6  5
++         5  6  6  4  4  4  4  5  4  4  4  4  4  4  4  4  4
++         5  4  4  4  4  4  4  4  4  4  4  4  3  4  3  3  3
++         3  3  3  3  3  3  3  3  3  3  4  3  3  4  4  3  3
++         3  3  3  3  3  4  3  3  4  3  9 10  7  6  6  6  6
++         6  6  6  6  6  7  6  6  6  6  7  7  6  6  0  0  0
%c M  cc GPS ccc cccc cccc cccc cccc ccccc ccccc ccccc ccccc
%c cc cc ccc ccc cccc cccc cccc cccc ccccc ccccc ccccc ccccc
%f  1.2500000  1.025000000  0.00000000000  0.000000000000000
%f  0.0000000  0.000000000  0.00000000000  0.000000000000000
%i    0    0    0    0      0      0      0      0         0
%i    0    0    0    0      0      0      0      0         0
/* INFORMATION & ANALYSIS CENTER (IAC)            FINAL DATA
/* S/V CLOCKS ARE ALIGNED TO GNSS TIME                      
/* G:C1WC2W R:C1PC2P E:C1XC5X C:C2IC6I J:C1CC2S             
/* PCV:IGS14_2215 OL/AL:FES2004  NONE     YN ORB:CoN CLK:CoN
*  2022 07 06 22 15  0.00000000
PC06  -8922.219766  40780.647007  -4882.502561    339.633823
PC07  -2789.929139  28455.053798  31046.427788   -394.775076
PC08 -17480.813511  25791.948467 -28497.510213    393.673423
PC09  -5084.989700  41490.909779   3061.644696   -936.118655
PC10   4079.222822  30545.721176  29233.504905    120.688517
PC11  10936.261532  17628.011569 -18625.309347    458.733530
PC12    616.092288  27669.130817  -3626.828313   -583.091570
PC13 -12170.532656  26775.675300 -30198.504744     16.538237
PC14  22341.608697  16534.498118  -2827.399883    530.433403
PC16      0.000000      0.000000      0.000000 999999.999999
PC19 -24959.511605 -10582.386276  -6537.963757   -154.544779
PC20 -17265.215657 -19353.092783  10267.834567   -964.135069
PC21  -1341.338737  17079.089992 -22018.284636   -626.819588
PC22 -18521.331120   4710.294069 -20323.863209   -962.904346
PC23  24916.134676 -12566.813466    237.797879   -941.779851
PC24   6386.305101  15026.015542  22629.895835   -968.138354
PC25  22999.016449    382.666892  15783.751927   -711.364612
PC26 -11378.110335  19542.691180  16365.443028    713.223653
PC27   5111.794536 -26980.211144  -5027.242432    750.218064
PC28  14132.912970 -14632.322631 -19102.314702     86.988887
PC29 -15370.178027  -6610.562977  22321.914018    578.193859
PC30  -7531.680129 -24244.866603  11594.396568    500.791215
PC32   1336.822222 -17059.121885  22055.241773   -973.454392
PC33  25050.696863  10485.625983   6479.087738   -104.295687
PC34   8155.027108  23577.951764 -12499.585912   -364.628708
PC35 -14046.244695  13928.630197  19657.765055    353.968745
PC36 -22716.340876  -1321.998672 -16125.868980   -973.049168
PC37  12938.641559 -19201.941922 -15542.214521   -914.223171
PC38 -23636.130461  27367.605503 -21795.190972      8.300291
PC39 -11511.588517  38081.558512 -13623.353343     34.972874
PC40  -6641.511319  23041.882494  34701.671569     -0.155408
PC41  18907.930732  -4405.903771  20098.331522    -59.496990
PC42  16515.934625  19547.574069 -11116.636773   -955.055176
PC43  15336.942741   7463.253019 -22096.948719      1.453028
PC44  -4268.317415  27073.886515   5148.829921    715.718307
PC45 -24815.533144  12787.289496    100.866636    802.264241
PC46  -8070.858885 -14031.592363 -22723.544244   -417.977326
PE01  19373.166341  13246.361149  18043.220396   -510.160951
PE02 -19544.418867 -13167.320774 -17915.876170    310.296585
PE03 -17090.590318 -23348.062093  -6200.568571   -576.325357
PE04  20002.868038   6707.536143  20774.219775  -1065.785405
PE05  -4060.142722 -26603.299086  12327.480416   -165.393129
PE07 -11104.485500  14352.041697 -23378.661942   -685.145828
PE08 -19870.855320  -6486.792405 -20947.483504   -559.152435
PE09  10949.699460 -14312.613849  23485.784651   -578.617097
PE10  20767.927339 -14021.848924 -15766.714222   -524.562264
PE11  18825.516171 -21913.036913  -6497.089713   3101.353785
PE12  19493.674900  -4247.841427 -21881.608800    -48.543798
PE13 -18990.216753  21535.500146   7182.157405    429.678654
PE14  -1873.011282  24901.658229  11411.149786  -1786.659828
PE15 -19364.832259   4154.060509  21994.285335    734.879723
PE18  12198.639837 -17671.456278 -20271.776607  -1244.521378
PE19  15846.182338  24700.757336   3883.742616  -5166.690302
PE21   -516.348359  16657.270076  24466.424353   -744.403075
PE24  22364.562795 -10175.922702 -16501.279878   -710.615262
PE25    849.886244 -16636.060062 -24458.285864   -580.154572
PE26  -6754.976320  25981.771802 -12478.915644  -1346.881167
PE27 -21452.664105  10807.601536  17306.378389   -338.823442
PE30 -29519.307109  -2087.139043   -877.107391   -651.314062
PE31  29569.595882   1360.804240     -8.784132   -499.484453
PE33   8322.810340  15576.396501 -23757.773825   -454.948553
PE34  -8489.736286 -15395.154217  23797.991246   -525.783492
PE36   7485.322115 -26135.591685  11709.108137   -398.471329
PG01 -13122.412935  22167.742322  -5965.110655    326.562450
PG02  19244.110518 -11591.602670 -13640.998609   -651.824172
PG03  -9263.502080  13158.626143 -21224.601531   -300.082068
PG04  -3906.392149  21233.781965 -15399.360287   -148.963421
PG05  22247.394567  -6613.985183  12874.340867    -88.181847
PG06  15060.364491   3923.374599 -21477.133278    373.960303
PG07    587.479162  19715.604537  17962.536324    320.138791
PG08  -8951.997298  14748.938197  20052.636232    -75.142472
PG09   5365.752815  25158.091128  -6612.810173   -321.613486
PG10 -20650.066739 -11617.794978  12447.291313   -482.361405
PG11  20734.830714  -8168.991591 -14434.388504    -11.426284
PG12  13117.313495 -11367.241694 -20341.074276   -242.383580
PG13  14268.859915  -4610.725481  21761.624930    343.388864
PG14  19056.405397  13129.750086  13126.837639   -112.003575
PG15   7699.998987 -15883.751120  19337.685269    -47.497848
PG16 -25287.606231   -123.258099   8570.936550   -513.778358
PG17  13134.140292  21039.258542  -8992.330913    633.781409
PG18    461.209454 -19610.371168  17840.402298    121.064546
PG19  15546.678908  13997.947938 -16756.739841    180.277668
PG20  26366.288087  -1248.081773   1423.276802    505.373036
PG21 -17363.876518  19004.530217   5401.022599    161.196844
PG22 -16115.168346 -11379.623544 -17448.921239    287.953994
PG23 -10890.243887 -14677.849167  19300.993267    -31.722944
PG24  14014.820166 -22276.675688  -1139.456859    203.557787
PG25  -2270.501809 -15722.528989 -21603.554827    346.090531
PG26 -26359.485823  -3989.249078  -2062.404289    216.716033
PG27 -15452.723247    663.095555  21424.143065    219.927498
PG28  23924.343435   9975.745605   5694.398574    331.564896
PG29  -3548.256751 -25564.934448  -6149.791057   -531.093286
PG30   9627.873813  12888.125128  21198.832623   -533.368528
PG31 -17309.772079  -1753.640236 -20323.999526   -184.716825
PG32 -15724.028533 -18381.205439 -11034.500974   -169.541529
PJ02 -30597.093745  22824.368086  22847.327720     -1.389291
PJ03 -27745.976973  29107.745125  17492.734483 999999.999999
PR01  18666.921501   6262.977080  16229.096940     11.064176
PR02   5878.361713  -9357.987994  23036.752980    523.410890
PR03  -9194.284416 -18449.855591  15107.020483     59.741970
PR04 -18826.064276 -17184.975070  -1049.004706    149.694471
PR05 -18163.507519  -6581.643109 -16656.051256     95.801317
PR07   9760.606368  18572.400561 -14434.562896     37.469082
PR08  18964.835817  16992.204899   1330.285143    -66.066608
PR09 -18157.231174  12545.572721  12741.706609     64.385914
PR11  15205.822859   5020.703167  19875.029459     34.064605
PR12  24518.279344  -5202.799481   4731.555760     19.185124
PR13  19278.699954 -12026.407178 -11604.259228    -24.347752
PR14   1686.627133 -11934.773922 -22466.240550     24.974332
PR15 -15939.195373  -4801.393003 -19300.494485     94.819123
PR17   2498.064848 -24338.211342   7141.914761    541.224003
PR18  -5764.969288 -14465.730609  20225.809663    122.709744
PR19 -10988.244694   1491.628724  22964.172849   -195.353114
PR20 -10763.047981  20259.390138  11112.501391    -74.084702
PR21  -1880.741668  23949.533731  -8628.765458   -315.321766
PR24  10252.170602 -20912.556379 -10374.130347    102.265041
EOF
